     3.02           NAVIGATION DATA                         RINEX VERSION / TYPE
GPSA 0.1211E-07 -0.7451E-08 -0.5960E-07  0.1192E-06         IONOSPHERIC CORR
GPSB 0.1167E+06 -0.2458E+06 -0.6554E+05  0.1114E+07         IONOSPHERIC CORR
GPUT 0.279396772385E-08 0.799360577730E-14 147456 2191      TIME SYSTEM CORR
    18                                                      LEAP SECONDS
                                                            END OF HEADER
G28 2022 01 01 08 00 00 0.431316439062E-03-0.795807864051E-11 0.000000000000E+00
     0.780000000000E+02 0.137656250000E+03 0.396516516505E-08-0.256901142107E-01
     0.713951885700E-05 0.170876241755E-01 0.110026448965E-04 0.515371538353E+04
     0.547200000000E+06-0.275671482086E-06-0.305000028306E+01-0.171363353729E-06
     0.970458245470E+00 0.175062500000E+03-0.129624356394E+01-0.799747598412E-08
    -0.114290474943E-10 0.100000000000E+01 0.219000000000E+04 0.000000000000E+00
     0.280000000000E+01 0.630000000000E+02-0.111758708954E-07 0.780000000000E+02
     0.540018000000E+06 0.400000000000E+01 0.000000000000E+00 0.000000000000E+00
G29 2022 01 01 08 00 00-0.461566727608E-03-0.488853402203E-11 0.000000000000E+00
     0.270000000000E+02 0.731875000000E+02 0.421124684391E-08-0.373218536862E+00
     0.364892184734E-05 0.175428099465E-02 0.273808836937E-06 0.515377412605E+04
     0.547200000000E+06 0.353902578354E-07-0.202214706538E+01 0.447034835815E-07
     0.982179886820E+00 0.382875000000E+03 0.230262476641E+01-0.831106047474E-08
     0.260010830495E-09 0.100000000000E+01 0.219000000000E+04 0.000000000000E+00
     0.200000000000E+01 0.000000000000E+00-0.102445483208E-07 0.270000000000E+02
     0.544008000000E+06 0.400000000000E+01 0.000000000000E+00 0.000000000000E+00
G30 2022 01 01 08 00 00-0.503588933498E-03-0.272848410532E-11 0.000000000000E+00
     0.101000000000E+03-0.116250000000E+02 0.522450333582E-08 0.291950898810E+01
    -0.666826963425E-06 0.538240454625E-02 0.849179923534E-05 0.515359031296E+04
     0.547200000000E+06-0.242143869400E-07 0.211291802496E+01-0.109896063805E-06
     0.935886215783E+00 0.202281250000E+03-0.275162851626E+01-0.810390898891E-08
    -0.698957685822E-09 0.100000000000E+01 0.219000000000E+04 0.000000000000E+00
     0.200000000000E+01 0.000000000000E+00 0.372529029846E-08 0.101000000000E+03
     0.540018000000E+06 0.400000000000E+01 0.000000000000E+00 0.000000000000E+00
G31 2022 01 01 08 00 00-0.157829374075E-03-0.181898940355E-11 0.000000000000E+00
     0.550000000000E+02-0.996875000000E+01 0.469590988921E-08 0.246948771290E+01
    -0.618398189545E-06 0.104652283480E-01 0.873394310474E-05 0.515366371918E+04
     0.547200000000E+06-0.124797224999E-06 0.211699357721E+01-0.149011611938E-07
     0.954964273821E+00 0.211781250000E+03 0.359924102044E+00-0.785568436364E-08
    -0.719315676671E-09 0.100000000000E+01 0.219000000000E+04 0.000000000000E+00
     0.200000000000E+01 0.000000000000E+00-0.130385160446E-07 0.550000000000E+02
     0.540049000000E+06 0.400000000000E+01 0.000000000000E+00 0.000000000000E+00
G32 2022 01 01 08 00 00-0.436357222498E-04-0.579802872380E-11 0.000000000000E+00
     0.230000000000E+02 0.176562500000E+02 0.509199781643E-08 0.220498140244E+00
     0.964850187302E-06 0.535111653153E-02 0.583007931709E-05 0.515374529076E+04
     0.547200000000E+06 0.745058059692E-08 0.103768032161E+01 0.540167093277E-07
     0.957548195303E+00 0.266000000000E+03-0.238336085259E+01-0.826927301984E-08
     0.297869550319E-09 0.100000000000E+01 0.219000000000E+04 0.000000000000E+00
     0.200000000000E+01 0.000000000000E+00 0.465661287308E-09 0.230000000000E+02
     0.542616000000E+06 0.400000000000E+01 0.000000000000E+00 0.000000000000E+00
G18 2022 01 01 09 44 32 0.269138254225E-03-0.704858393874E-11 0.000000000000E+00
     0.105000000000E+03-0.144906250000E+03 0.434910972931E-08-0.159680854338E+01
    -0.770576298237E-05 0.209595274646E-02 0.317022204399E-05 0.515363486481E+04
     0.553472000000E+06 0.204890966415E-07-0.102840552778E+01-0.502914190292E-07
     0.970197025355E+00 0.324343750000E+03 0.309890093849E+01-0.818926968738E-08
    -0.179650340301E-09 0.100000000000E+01 0.219000000000E+04 0.000000000000E+00
     0.200000000000E+01 0.000000000000E+00-0.838190317154E-08 0.873000000000E+03
     0.546373000000E+06 0.400000000000E+01 0.000000000000E+00 0.000000000000E+00
G01 2022 01 01 09 59 44 0.468767713755E-03-0.100044417195E-10 0.000000000000E+00
     0.100000000000E+01-0.151750000000E+03 0.399766651886E-08-0.165909831076E+01
    -0.785104930401E-05 0.112184628379E-01 0.361353158951E-05 0.515367351723E+04
     0.554384000000E+06 0.171363353729E-06-0.103690100905E+01-0.372529029846E-07
     0.986408420807E+00 0.318593750000E+03 0.884251451319E+00-0.792068707127E-08
    -0.181793286706E-09 0.100000000000E+01 0.219000000000E+04 0.000000000000E+00
     0.200000000000E+01 0.000000000000E+00 0.512227416039E-08 0.100000000000E+01
     0.549828000000E+06 0.400000000000E+01 0.000000000000E+00 0.000000000000E+00
G02 2022 01 01 09 59 44-0.647433567792E-03-0.113686837722E-11 0.000000000000E+00
     0.100000000000E+01-0.138000000000E+03 0.466197990446E-08-0.148808130890E+01
    -0.659376382828E-05 0.206409639213E-01 0.221654772758E-05 0.515366699028E+04
     0.554384000000E+06-0.124797224999E-06-0.112525979520E+01 0.560656189918E-06
     0.964733899691E+00 0.339406250000E+03-0.146453690053E+01-0.842177937234E-08
    -0.253224833545E-09 0.100000000000E+01 0.219000000000E+04 0.000000000000E+00
     0.200000000000E+01 0.000000000000E+00-0.176951289177E-07 0.100000000000E+01
     0.549456000000E+06 0.400000000000E+01 0.000000000000E+00 0.000000000000E+00
G05 2022 01 01 09 59 44-0.663837417960E-04-0.136424205266E-11 0.000000000000E+00
     0.290000000000E+02-0.104625000000E+03 0.432768026525E-08 0.984015317971E+00
    -0.522285699844E-05 0.589292286895E-02 0.119935721159E-04 0.515364715195E+04
     0.554384000000E+06-0.484287738800E-07-0.413776796607E-01 0.119209289551E-06
     0.959416575757E+00 0.150906250000E+03 0.101482242850E+01-0.781603985515E-08
     0.366086677551E-09 0.100000000000E+01 0.219000000000E+04 0.000000000000E+00
     0.200000000000E+01 0.000000000000E+00-0.111758708954E-07 0.290000000000E+02
     0.547218000000E+06 0.400000000000E+01 0.000000000000E+00 0.000000000000E+00
G06 2022 01 01 09 59 44 0.158458482474E-03 0.105728759081E-10 0.000000000000E+00
     0.000000000000E+00-0.161750000000E+03 0.412410035676E-08-0.127577400748E+01
    -0.837817788124E-05 0.256944564171E-02 0.347569584847E-05 0.515364445114E+04
     0.554384000000E+06-0.335276126862E-07-0.104516997795E+01 0.186264514923E-08
     0.985791714525E+00 0.328750000000E+03-0.101573211924E+01-0.812176687562E-08
    -0.256796410887E-09 0.100000000000E+01 0.219000000000E+04 0.000000000000E+00
     0.200000000000E+01 0.000000000000E+00 0.419095158577E-08 0.000000000000E+00
     0.549828000000E+06 0.400000000000E+01 0.000000000000E+00 0.000000000000E+00
G15 2022 01 01 09 59 44-0.948449596763E-04 0.284217094304E-11 0.000000000000E+00
     0.500000000000E+01 0.179687500000E+02 0.569630870269E-08-0.366723085500E+00
     0.112503767013E-05 0.139172241325E-01 0.702776014805E-05 0.515370930862E+04
     0.554384000000E+06-0.558793544769E-07 0.921732865188E+00 0.145286321640E-06
     0.929591557242E+00 0.226937500000E+03 0.106841015495E+01-0.866000358105E-08
     0.503592405217E-09 0.100000000000E+01 0.219000000000E+04 0.000000000000E+00
     0.200000000000E+01 0.000000000000E+00-0.107102096081E-07 0.500000000000E+01
     0.552906000000E+06 0.400000000000E+01 0.000000000000E+00 0.000000000000E+00
G17 2022 01 01 09 59 44 0.555417034775E-03 0.511590769747E-11 0.000000000000E+00
     0.100000000000E+01 0.803125000000E+02 0.439804033889E-08 0.557205514395E+00
     0.406987965107E-05 0.137547373306E-01 0.223517417908E-07 0.515373010445E+04
     0.554384000000E+06-0.189989805222E-06-0.203512718347E+01-0.119209289551E-06
     0.980204382727E+00 0.387687500000E+03-0.151392314674E+01-0.864214569434E-08
     0.206080012631E-09 0.100000000000E+01 0.219000000000E+04 0.000000000000E+00
     0.200000000000E+01 0.000000000000E+00-0.111758708954E-07 0.100000000000E+01
     0.553206000000E+06 0.400000000000E+01 0.000000000000E+00 0.000000000000E+00
G22 2022 01 01 09 59 44-0.427819788456E-03 0.886757334229E-11 0.000000000000E+00
     0.500000000000E+01-0.961250000000E+02 0.479591405479E-08-0.556587845512E+00
    -0.497139990330E-05 0.684993620962E-02 0.120531767607E-04 0.515364932060E+04
     0.554384000000E+06-0.132247805595E-06-0.108696930132E+00-0.117346644402E-06
     0.938302157697E+00 0.137687500000E+03-0.864630656526E+00-0.806783605775E-08
     0.435018120251E-09 0.100000000000E+01 0.219000000000E+04 0.000000000000E+00
     0.200000000000E+01 0.630000000000E+02-0.176951289177E-07 0.500000000000E+01
     0.547218000000E+06 0.400000000000E+01 0.000000000000E+00 0.000000000000E+00
G27 2022 01 01 09 59 44 0.412371009588E-04 0.252384779742E-10 0.000000000000E+00
     0.310000000000E+02 0.957187500000E+02 0.438625413366E-08 0.568431855571E+00
     0.498443841934E-05 0.993762421422E-02 0.428408384323E-06 0.515365189362E+04
     0.554384000000E+06 0.186264514923E-08-0.209731384145E+01 0.154599547386E-06
     0.973867883266E+00 0.377625000000E+03 0.628101119733E+00-0.844820904467E-08
     0.171792870148E-09 0.100000000000E+01 0.219000000000E+04 0.000000000000E+00
     0.200000000000E+01 0.000000000000E+00 0.186264514923E-08 0.310000000000E+02
     0.552739000000E+06 0.400000000000E+01 0.000000000000E+00 0.000000000000E+00
